start=new Date('2022-04-03T00:00:00.000Z').valueOf();
sats=[{"TLE_LINE1":"1 45225U 20012AZ  22092.89447321 -.00004003  00000-0 -25008-3 0  9993","OBJECT_ID":"2020-012AZ","OBJECT_NAME":"STARLINK-1215","PERIOD":"95.593","PERIAPSIS":"545.998","EPHEMERIS_TYPE":"0","MEAN_MOTION":"15.06387709","SEMIMAJOR_AXIS":"6925.386","DECAY_DATE":null,"ECCENTRICITY":"0.00018090","TIME_SYSTEM":"UTC","MEAN_MOTION_DDOT":"0.0000000000000","TLE_LINE2":"2 45225  53.0548 336.6324 0001809  53.9494 306.1662 15.06387709118790","RCS_SIZE":"LARGE","BSTAR":"-0.00025008000000","MEAN_ELEMENT_THEORY":"SGP4","REV_AT_EPOCH":"11879","ARG_OF_PERICENTER":"53.9494","OBJECT_TYPE":"PAYLOAD","EPOCH":"2022-04-02T21:28:02.485344","MEAN_MOTION_DOT":"-0.00004003","NORAD_CAT_ID":"45225","LAUNCH_DATE":"2020-02-17","ELEMENT_SET_NO":"999","INCLINATION":"53.0548","COUNTRY_CODE":"US","CENTER_NAME":"EARTH","FILE":"3385473","GP_ID":"200321490","MEAN_ANOMALY":"306.1662","REF_FRAME":"TEME","SITE":"AFETR","CLASSIFICATION_TYPE":"U","RA_OF_ASC_NODE":"336.6324","APOAPSIS":"548.504"},{"MEAN_MOTION_DDOT":"0.0000000000000","TIME_SYSTEM":"UTC","REV_AT_EPOCH":"11875","RCS_SIZE":"LARGE","MEAN_ELEMENT_THEORY":"SGP4","BSTAR":"-0.00004686600000","TLE_LINE2":"2 45226  53.0554 336.6064 0001351  71.0898 289.0237 15.06395159118751","PERIOD":"95.592","PERIAPSIS":"546.293","OBJECT_NAME":"STARLINK-1217","OBJECT_ID":"2020-012BA","TLE_LINE1":"1 45226U 20012BA  22092.90184705 -.00000979  00000-0 -46866-4 0  9994","ECCENTRICITY":"0.00013510","DECAY_DATE":null,"SEMIMAJOR_AXIS":"6925.363","MEAN_MOTION":"15.06395159","EPHEMERIS_TYPE":"0","GP_ID":"200321240","FILE":"3385473","CENTER_NAME":"EARTH","APOAPSIS":"548.164","RA_OF_ASC_NODE":"336.6064","CLASSIFICATION_TYPE":"U","SITE":"AFETR","MEAN_ANOMALY":"289.0237","REF_FRAME":"TEME","OBJECT_TYPE":"PAYLOAD","ARG_OF_PERICENTER":"71.0898","INCLINATION":"53.0554","COUNTRY_CODE":"US","ELEMENT_SET_NO":"999","LAUNCH_DATE":"2020-02-17","NORAD_CAT_ID":"45226","MEAN_MOTION_DOT":"-0.00000979","EPOCH":"2022-04-02T21:38:39.585120"},{"MEAN_MOTION_DDOT":"0.0000000000000","TIME_SYSTEM":"UTC","TLE_LINE2":"2 45227  53.0548 336.5032 0001613  59.2001 300.9146 15.06393409118763","MEAN_ELEMENT_THEORY":"SGP4","RCS_SIZE":"LARGE","BSTAR":"0.00002910500000","REV_AT_EPOCH":"11876","OBJECT_NAME":"STARLINK-1221","PERIAPSIS":"546.117","PERIOD":"95.593","TLE_LINE1":"1 45227U 20012BB  22092.92395970  .00000152  00000-0  29105-4 0  9993","OBJECT_ID":"2020-012BB","SEMIMAJOR_AXIS":"6925.369","DECAY_DATE":null,"ECCENTRICITY":"0.00016130","EPHEMERIS_TYPE":"0","MEAN_MOTION":"15.06393409","CENTER_NAME":"EARTH","FILE":"3385473","GP_ID":"200320489","CLASSIFICATION_TYPE":"U","RA_OF_ASC_NODE":"336.5032","APOAPSIS":"548.351","MEAN_ANOMALY":"300.9146","REF_FRAME":"TEME","SITE":"AFETR","ARG_OF_PERICENTER":"59.2001","OBJECT_TYPE":"PAYLOAD","LAUNCH_DATE":"2020-02-17","ELEMENT_SET_NO":"999","COUNTRY_CODE":"US","INCLINATION":"53.0548","EPOCH":"2022-04-02T22:10:30.118080","MEAN_MOTION_DOT":"0.00000152","NORAD_CAT_ID":"45227"},{"OBJECT_TYPE":"PAYLOAD","ARG_OF_PERICENTER":"61.8099","COUNTRY_CODE":"US","INCLINATION":"53.0557","ELEMENT_SET_NO":"999","LAUNCH_DATE":"2020-02-17","NORAD_CAT_ID":"45228","MEAN_MOTION_DOT":"-0.00000212","EPOCH":"2022-04-02T22:15:48.768192","GP_ID":"200320739","FILE":"3385473","CENTER_NAME":"EARTH","APOAPSIS":"548.362","RA_OF_ASC_NODE":"336.4886","CLASSIFICATION_TYPE":"U","SITE":"AFETR","MEAN_ANOMALY":"298.3053","REF_FRAME":"TEME","PERIAPSIS":"546.117","PERIOD":"95.593","OBJECT_NAME":"STARLINK-1222","OBJECT_ID":"2020-012BC","TLE_LINE1":"1 45228U 20012BC  22092.92764778 -.00000212  00000-0  46566-5 0  9999","ECCENTRICITY":"0.00016210","DECAY_DATE":null,"SEMIMAJOR_AXIS":"6925.375","EPHEMERIS_TYPE":"0","MEAN_MOTION":"15.06391461","MEAN_MOTION_DDOT":"0.0000000000000","TIME_SYSTEM":"UTC","REV_AT_EPOCH":"11873","RCS_SIZE":"LARGE","MEAN_ELEMENT_THEORY":"SGP4","BSTAR":"0.00000465660000","TLE_LINE2":"2 45228  53.0557 336.4886 0001621  61.8099 298.3053 15.06391461118735"},{"RCS_SIZE":"LARGE","BSTAR":"-0.00011551000000","MEAN_ELEMENT_THEORY":"SGP4","TLE_LINE2":"2 45229  53.0564 336.6650 0001674  62.8259 297.2901 15.06390977118733","REV_AT_EPOCH":"11873","TIME_SYSTEM":"UTC","MEAN_MOTION_DDOT":"0.0000000000000","MEAN_MOTION":"15.06390977","EPHEMERIS_TYPE":"0","SEMIMAJOR_AXIS":"6925.376","ECCENTRICITY":"0.00016740","DECAY_DATE":null,"TLE_LINE1":"1 45229U 20012BD  22092.89078604 -.00002001  00000-0 -11551-3 0  9995","OBJECT_ID":"2020-012BD","PERIOD":"95.593","PERIAPSIS":"546.082","OBJECT_NAME":"STARLINK-1226","REF_FRAME":"TEME","MEAN_ANOMALY":"297.2901","SITE":"AFETR","RA_OF_ASC_NODE":"336.6650","CLASSIFICATION_TYPE":"U","APOAPSIS":"548.401","CENTER_NAME":"EARTH","FILE":"3385473","GP_ID":"200320990","MEAN_MOTION_DOT":"-0.00002001","EPOCH":"2022-04-02T21:22:43.913856","NORAD_CAT_ID":"45229","LAUNCH_DATE":"2020-02-17","INCLINATION":"53.0564","COUNTRY_CODE":"US","ELEMENT_SET_NO":"999","ARG_OF_PERICENTER":"62.8259","OBJECT_TYPE":"PAYLOAD"},{"TIME_SYSTEM":"UTC","MEAN_MOTION_DDOT":"0.0000000000000","TLE_LINE2":"2 45230  53.0554 336.6669 0001625  72.9426 287.1741 15.06388807118850","RCS_SIZE":"LARGE","BSTAR":"-0.00018970000000","MEAN_ELEMENT_THEORY":"SGP4","REV_AT_EPOCH":"11885","TLE_LINE1":"1 45230U 20012BE  22092.88710274 -.00003105  00000-0 -18970-3 0  9990","OBJECT_ID":"2020-012BE","OBJECT_NAME":"STARLINK-1227","PERIOD":"95.593","PERIAPSIS":"546.122","EPHEMERIS_TYPE":"0","MEAN_MOTION":"15.06388807","SEMIMAJOR_AXIS":"6925.383","DECAY_DATE":null,"ECCENTRICITY":"0.00016250","CENTER_NAME":"EARTH","FILE":"3385473","GP_ID":"200321741","REF_FRAME":"TEME","MEAN_ANOMALY":"287.1741","SITE":"AFETR","CLASSIFICATION_TYPE":"U","RA_OF_ASC_NODE":"336.6669","APOAPSIS":"548.373","ARG_OF_PERICENTER":"72.9426","OBJECT_TYPE":"PAYLOAD","EPOCH":"2022-04-02T21:17:25.676736","MEAN_MOTION_DOT":"-0.00003105","NORAD_CAT_ID":"45230","LAUNCH_DATE":"2020-02-17","ELEMENT_SET_NO":"999","INCLINATION":"53.0554","COUNTRY_CODE":"US"},{"GP_ID":"200319989","FILE":"3385473","CENTER_NAME":"EARTH","APOAPSIS":"345.951","RA_OF_ASC_NODE":"201.0187","CLASSIFICATION_TYPE":"U","SITE":"AFETR","MEAN_ANOMALY":"83.1148","REF_FRAME":"TEME","OBJECT_TYPE":"PAYLOAD","ARG_OF_PERICENTER":"276.8843","COUNTRY_CODE":"US","INCLINATION":"53.0276","ELEMENT_SET_NO":"999","LAUNCH_DATE":"2020-02-17","NORAD_CAT_ID":"45231","MEAN_MOTION_DOT":"-0.00001755","EPOCH":"2022-04-02T15:35:29.967360","MEAN_MOTION_DDOT":"0.0000000000000","TIME_SYSTEM":"UTC","REV_AT_EPOCH":"12058","BSTAR":"-0.00000663030000","RCS_SIZE":"LARGE","MEAN_ELEMENT_THEORY":"SGP4","TLE_LINE2":"2 45231  53.0276 201.0187 0009030 276.8843  83.1148 15.76670297120580","PERIAPSIS":"333.818","PERIOD":"91.332","OBJECT_NAME":"STARLINK-1229","OBJECT_ID":"2020-012BF","TLE_LINE1":"1 45231U 20012BF  22092.64965240 -.00001755  00000-0 -66303-5 0  9994","ECCENTRICITY":"0.00090300","DECAY_DATE":null,"SEMIMAJOR_AXIS":"6718.019","MEAN_MOTION":"15.76670297","EPHEMERIS_TYPE":"0"},{"MEAN_MOTION":"15.06386221","EPHEMERIS_TYPE":"0","ECCENTRICITY":"0.00016960","DECAY_DATE":null,"SEMIMAJOR_AXIS":"6925.391","OBJECT_ID":"2020-012BG","TLE_LINE1":"1 45232U 20012BG  22092.89815796  .00002417  00000-0  18120-3 0  9998","PERIAPSIS":"546.081","PERIOD":"95.593","OBJECT_NAME":"STARLINK-1235","REV_AT_EPOCH":"11884","RCS_SIZE":"LARGE","MEAN_ELEMENT_THEORY":"SGP4","BSTAR":"0.00018120000000","TLE_LINE2":"2 45232  53.0553 336.6218 0001696  53.7675 306.3470 15.06386221118842","TIME_SYSTEM":"UTC","MEAN_MOTION_DDOT":"0.0000000000000","NORAD_CAT_ID":"45232","MEAN_MOTION_DOT":"0.00002417","EPOCH":"2022-04-02T21:33:20.847744","INCLINATION":"53.0553","COUNTRY_CODE":"US","ELEMENT_SET_NO":"999","LAUNCH_DATE":"2020-02-17","OBJECT_TYPE":"PAYLOAD","ARG_OF_PERICENTER":"53.7675","SITE":"AFETR","REF_FRAME":"TEME","MEAN_ANOMALY":"306.3470","APOAPSIS":"548.430","RA_OF_ASC_NODE":"336.6218","CLASSIFICATION_TYPE":"U","GP_ID":"200320239","FILE":"3385473","CENTER_NAME":"EARTH"},{"CENTER_NAME":"EARTH","GP_ID":"200321491","FILE":"3385473","REF_FRAME":"TEME","MEAN_ANOMALY":"298.2799","SITE":"AFETR","RA_OF_ASC_NODE":"356.7279","CLASSIFICATION_TYPE":"U","APOAPSIS":"548.441","ARG_OF_PERICENTER":"61.8374","OBJECT_TYPE":"PAYLOAD","MEAN_MOTION_DOT":"0.00001061","EPOCH":"2022-04-02T21:04:07.424544","NORAD_CAT_ID":"45233","LAUNCH_DATE":"2020-02-17","INCLINATION":"53.0550","COUNTRY_CODE":"US","ELEMENT_SET_NO":"999","TIME_SYSTEM":"UTC","MEAN_MOTION_DDOT":"0.0000000000000","MEAN_ELEMENT_THEORY":"SGP4","RCS_SIZE":"LARGE","BSTAR":"0.00009012800000","TLE_LINE2":"2 45233  53.0550 356.7279 0001819  61.8374 298.2799 15.06410629118543","REV_AT_EPOCH":"11854","TLE_LINE1":"1 45233U 20012BH  22092.87786371  .00001061  00000-0  90128-4 0  9996","OBJECT_ID":"2020-012BH","PERIAPSIS":"545.921","PERIOD":"95.591","OBJECT_NAME":"STARLINK-1238","EPHEMERIS_TYPE":"0","MEAN_MOTION":"15.06410629","SEMIMAJOR_AXIS":"6925.316","ECCENTRICITY":"0.00018190","DECAY_DATE":null},{"SEMIMAJOR_AXIS":"6925.381","ECCENTRICITY":"0.00014360","DECAY_DATE":null,"EPHEMERIS_TYPE":"0","MEAN_MOTION":"15.06389433","PERIAPSIS":"546.251","PERIOD":"95.593","OBJECT_NAME":"STARLINK-1243","TLE_LINE1":"1 45234U 20012BJ  22092.78390137 -.00001540  00000-0 -84535-4 0  9997","OBJECT_ID":"2020-012BJ","RCS_SIZE":"LARGE","BSTAR":"-0.00008453500000","MEAN_ELEMENT_THEORY":"SGP4","TLE_LINE2":"2 45234  53.0578  17.1316 0001436  65.9888 294.1251 15.06389433118236","REV_AT_EPOCH":"11823","MEAN_MOTION_DDOT":"0.0000000000000","TIME_SYSTEM":"UTC","LAUNCH_DATE":"2020-02-17","COUNTRY_CODE":"US","INCLINATION":"53.0578","ELEMENT_SET_NO":"999","MEAN_MOTION_DOT":"-0.00001540","EPOCH":"2022-04-02T18:48:49.078368","NORAD_CAT_ID":"45234","ARG_OF_PERICENTER":"65.9888","OBJECT_TYPE":"PAYLOAD","RA_OF_ASC_NODE":"17.1316","CLASSIFICATION_TYPE":"U","APOAPSIS":"548.240","MEAN_ANOMALY":"294.1251","REF_FRAME":"TEME","SITE":"AFETR","CENTER_NAME":"EARTH","GP_ID":"200321241","FILE":"3385473"}];
